OBJECT_NAME,OBJECT_ID,EPOCH,MEAN_MOTION,ECCENTRICITY,INCLINATION,RA_OF_ASC_NODE,ARG_OF_PERICENTER,MEAN_ANOMALY,EPHEMERIS_TYPE,CLASSIFICATION_TYPE,NORAD_CAT_ID,ELEMENT_SET_NO,REV_AT_EPOCH,BSTAR,MEAN_MOTION_DOT,MEAN_MOTION_DDOT
STARLINK-11527 [DTC],2025-004N,2025-01-25T21:08:25.350144,15.84447943,.0002279,43.0062,10.4183,271.4603,88.6008,0,U,62523,999,305,.1643E-3,.38439E-3,0
STARLINK-32748,2025-004P,2025-01-25T22:00:01.999584,15.71025247,.0001292,43.0004,10.4909,277.7689,169.1449,0,U,62524,999,384,-.11811E-1,-.1358039E-1,0
STARLINK-32777,2025-004Q,2025-01-25T22:00:01.999584,15.71020087,.0001231,43.0004,10.4859,277.4323,171.4008,0,U,62525,999,400,-.11746E-1,-.1351096E-1,0
STARLINK-32741,2025-004R,2025-01-25T22:00:01.999584,15.71022145,.0001266,43.0004,10.4808,272.9136,177.8328,0,U,62526,999,399,-.11728E-1,-.1349376E-1,0
STARLINK-32754,2025-004S,2025-01-25T22:00:01.999584,15.71022363,.0001402,43.0004,10.4761,283.0973,169.5631,0,U,62527,999,399,-.11726E-1,-.1349252E-1,0
STARLINK-32786,2025-004T,2025-01-25T22:00:01.999584,15.71026118,.0001348,42.9996,10.4663,278.3351,178.1624,0,U,62528,999,185,-.1181E-1,-.1358012E-1,0
STARLINK-32789,2025-004U,2025-01-25T22:00:01.999584,15.71023221,.0001198,42.9997,10.4712,260.0293,194.5542,0,U,62529,999,400,-.11787E-1,-.1355434E-1,0
STARLINK-32791,2025-004V,2025-01-25T22:00:01.999584,15.71026095,.0001561,42.9998,10.4615,270.4231,187.9897,0,U,62530,999,400,-.11781E-1,-.1355157E-1,0
STARLINK-32785,2025-004W,2025-01-25T22:00:01.999584,15.71022328,.0001299,42.9999,10.4566,279.1659,181.1657,0,U,62531,999,400,-.11748E-1,-.135145E-1,0
STARLINK-11538 [DTC],2025-006A,2025-01-25T15:22:40.691136,15.77852555,.0001377,43.0015,84.2635,267.9306,92.1407,0,U,62554,999,237,.29823E-3,.51705E-3,0
STARLINK-11534 [DTC],2025-006B,2025-01-25T22:00:01.999584,15.77870303,.0001556,43.0011,82.5127,266.7223,250.4559,0,U,62555,999,350,-.15788E-3,-.279E-3,0
STARLINK-11515 [DTC],2025-006C,2025-01-25T22:00:01.999584,15.77873507,.0001458,43.0018,82.4435,270.1140,274.8153,0,U,62556,999,351,-.2104E-3,-.36981E-3,0
STARLINK-11478 [DTC],2025-006D,2025-01-25T22:00:01.999584,15.78391474,.0001442,43.0039,82.3794,266.1381,304.4998,0,U,62557,999,350,-.11229E-3,-.20471E-3,0
STARLINK-11358 [DTC],2025-006E,2025-01-25T22:00:01.999584,15.78229343,.0001873,43.0046,82.3052,271.0111,329.2254,0,U,62558,999,355,-.32284E-2,-.537342E-2,0
STARLINK-11517 [DTC],2025-006F,2025-01-25T14:46:49.648224,15.83752026,.0000566,43.0051,84.0608,340.2262,19.8589,0,U,62559,999,237,-.39298E-3,-.89437E-3,0
STARLINK-11519 [DTC],2025-006G,2025-01-25T22:00:01.999584,15.80645303,.0001789,43.0057,82.2501,271.8783,350.3713,0,U,62560,999,350,-.6143E-2,-.1091088E-1,0
STARLINK-11451 [DTC],2025-006H,2025-01-25T14:45:28.630944,15.85096542,.0001329,43.0054,84.0535,294.1314,65.9420,0,U,62561,999,237,.59437E-4,.13951E-3,0
STARLINK-11530 [DTC],2025-006J,2025-01-25T14:45:08.377920,15.85129912,.0001474,43.0056,84.0518,253.3991,106.6720,0,U,62562,999,237,.44091E-4,.10216E-3,0
STARLINK-11536 [DTC],2025-006K,2025-01-25T14:44:32.248032,15.85165541,.0001379,43.0057,84.0489,284.8715,75.2005,0,U,62563,999,237,.19589E-3,.4761E-3,0
STARLINK-11540 [DTC],2025-006L,2025-01-25T14:43:51.219264,15.85132570,.0001632,43.0056,84.0438,271.7526,88.3160,0,U,62564,999,237,.64862E-4,.15305E-3,0
STARLINK-11523 [DTC],2025-006M,2025-01-25T14:43:09.088896,15.85121143,.0002003,43.0058,84.0411,309.8096,50.2601,0,U,62565,999,237,.64036E-4,.15094E-3,0
STARLINK-11525 [DTC],2025-006N,2025-01-25T14:42:21.020256,15.85112989,.0001576,43.0052,84.0355,297.0184,63.0528,0,U,62566,999,237,-.25955E-4,-.6889E-4,0
STARLINK-32752,2025-006P,2025-01-25T22:00:01.999584,15.73827108,.0001421,43.0012,82.4768,277.2470,253.7987,0,U,62567,999,351,-.10735E-1,-.138883E-1,0
STARLINK-32760,2025-006Q,2025-01-25T22:00:01.999584,15.73828834,.0001501,43.0011,82.4721,274.4254,258.5406,0,U,62568,999,350,-.10793E-1,-.1395624E-1,0
STARLINK-32715,2025-006R,2025-01-25T22:00:01.999584,15.73828760,.0001273,43.0012,82.4673,272.6244,262.2597,0,U,62569,999,345,-.10792E-1,-.1395375E-1,0
STARLINK-32764,2025-006S,2025-01-25T22:00:01.999584,15.73828637,.0001503,43.0011,82.4623,265.1348,271.6654,0,U,62570,999,340,-.10787E-1,-.1394926E-1,0
STARLINK-32773,2025-006T,2025-01-25T22:00:01.999584,15.73824845,.000138,43.0011,82.4577,260.0379,278.6854,0,U,62571,999,350,-.1078E-1,-.1393849E-1,0
STARLINK-32750,2025-006U,2025-01-25T22:00:01.999584,15.73827185,.0001553,43.0012,82.4527,262.0153,278.6146,0,U,62572,999,350,-.10723E-1,-.1387532E-1,0
STARLINK-32771,2025-006V,2025-01-25T22:00:01.999584,15.73861652,.0001018,43.0011,82.4477,282.7599,259.7968,0,U,62573,999,350,-.11355E-1,-.1461209E-1,0
STARLINK-32766,2025-006W,2025-01-25T22:00:01.999584,15.73824708,.0001574,43.0011,82.4430,269.5062,274.9657,0,U,62574,999,355,-.10759E-1,-.1391543E-1,0
