STARLINK-11527 [DTC]    
1 62523U 25004N   25025.88084896  .00038439  00000+0  16430-3 0  9997
2 62523  43.0062  10.4183 0002279 271.4603  88.6008 15.84447943  3052
STARLINK-32748          
1 62524U 25004P   25025.91668981 -.01358039  00000+0 -11811-1 0  9995
2 62524  43.0004  10.4909 0001292 277.7689 169.1449 15.71025247  3848
STARLINK-32777          
1 62525U 25004Q   25025.91668981 -.01351096  00000+0 -11746-1 0  9999
2 62525  43.0004  10.4859 0001231 277.4323 171.4008 15.71020087  4001
STARLINK-32741          
1 62526U 25004R   25025.91668981 -.01349376  00000+0 -11728-1 0  9998
2 62526  43.0004  10.4808 0001266 272.9136 177.8328 15.71022145  3995
STARLINK-32754          
1 62527U 25004S   25025.91668981 -.01349252  00000+0 -11726-1 0  9990
2 62527  43.0004  10.4761 0001402 283.0973 169.5631 15.71022363  3995
STARLINK-32786          
1 62528U 25004T   25025.91668981 -.01358012  00000+0 -11810-1 0  9999
2 62528  42.9996  10.4663 0001348 278.3351 178.1624 15.71026118  1854
STARLINK-32789          
1 62529U 25004U   25025.91668981 -.01355434  00000+0 -11787-1 0  9998
2 62529  42.9997  10.4712 0001198 260.0293 194.5542 15.71023221  4000
STARLINK-32791          
1 62530U 25004V   25025.91668981 -.01355157  00000+0 -11781-1 0  9996
2 62530  42.9998  10.4615 0001561 270.4231 187.9897 15.71026095  4007
STARLINK-32785          
1 62531U 25004W   25025.91668981 -.01351450  00000+0 -11748-1 0  9992
2 62531  42.9999  10.4566 0001299 279.1659 181.1657 15.71022328  4007
STARLINK-11538 [DTC]    
1 62554U 25006A   25025.64074874  .00051705  00000+0  29823-3 0  9993
2 62554  43.0015  84.2635 0001377 267.9306  92.1407 15.77852555  2371
STARLINK-11534 [DTC]    
1 62555U 25006B   25025.91668981 -.00027900  00000+0 -15788-3 0  9999
2 62555  43.0011  82.5127 0001556 266.7223 250.4559 15.77870303  3503
STARLINK-11515 [DTC]    
1 62556U 25006C   25025.91668981 -.00036981  00000+0 -21040-3 0  9997
2 62556  43.0018  82.4435 0001458 270.1140 274.8153 15.77873507  3510
STARLINK-11478 [DTC]    
1 62557U 25006D   25025.91668981 -.00020471  00000+0 -11229-3 0  9993
2 62557  43.0039  82.3794 0001442 266.1381 304.4998 15.78391474  3501
STARLINK-11358 [DTC]    
1 62558U 25006E   25025.91668981 -.00537342  00000+0 -32284-2 0  9997
2 62558  43.0046  82.3052 0001873 271.0111 329.2254 15.78229343  3551
STARLINK-11517 [DTC]    
1 62559U 25006F   25025.61585241 -.00089437  00000+0 -39298-3 0  9992
2 62559  43.0051  84.0608 0000566 340.2262  19.8589 15.83752026  2375
STARLINK-11519 [DTC]    
1 62560U 25006G   25025.91668981 -.01091088  00000+0 -61430-2 0  9998
2 62560  43.0057  82.2501 0001789 271.8783 350.3713 15.80645303  3504
STARLINK-11451 [DTC]    
1 62561U 25006H   25025.61491471  .00013951  00000+0  59437-4 0  9990
2 62561  43.0054  84.0535 0001329 294.1314  65.9420 15.85096542  2375
STARLINK-11530 [DTC]    
1 62562U 25006J   25025.61468030  .00010216  00000+0  44091-4 0  9997
2 62562  43.0056  84.0518 0001474 253.3991 106.6720 15.85129912  2372
STARLINK-11536 [DTC]    
1 62563U 25006K   25025.61426213  .00047610  00000+0  19589-3 0  9996
2 62563  43.0057  84.0489 0001379 284.8715  75.2005 15.85165541  2373
STARLINK-11540 [DTC]    
1 62564U 25006L   25025.61378726  .00015305  00000+0  64862-4 0  9993
2 62564  43.0056  84.0438 0001632 271.7526  88.3160 15.85132570  2377
STARLINK-11523 [DTC]    
1 62565U 25006M   25025.61329964  .00015094  00000+0  64036-4 0  9992
2 62565  43.0058  84.0411 0002003 309.8096  50.2601 15.85121143  2371
STARLINK-11525 [DTC]    
1 62566U 25006N   25025.61274329 -.00006889  00000+0 -25955-4 0  9998
2 62566  43.0052  84.0355 0001576 297.0184  63.0528 15.85112989  2371
STARLINK-32752          
1 62567U 25006P   25025.91668981 -.01388830  00000+0 -10735-1 0  9990
2 62567  43.0012  82.4768 0001421 277.2470 253.7987 15.73827108  3512
STARLINK-32760          
1 62568U 25006Q   25025.91668981 -.01395624  00000+0 -10793-1 0  9994
2 62568  43.0011  82.4721 0001501 274.4254 258.5406 15.73828834  3504
STARLINK-32715          
1 62569U 25006R   25025.91668981 -.01395375  00000+0 -10792-1 0  9997
2 62569  43.0012  82.4673 0001273 272.6244 262.2597 15.73828760  3452
STARLINK-32764          
1 62570U 25006S   25025.91668981 -.01394926  00000+0 -10787-1 0  9994
2 62570  43.0011  82.4623 0001503 265.1348 271.6654 15.73828637  3402
STARLINK-32773          
1 62571U 25006T   25025.91668981 -.01393849  00000+0 -10780-1 0  9991
2 62571  43.0011  82.4577 0001380 260.0379 278.6854 15.73824845  3509
STARLINK-32750          
1 62572U 25006U   25025.91668981 -.01387532  00000+0 -10723-1 0  9991
2 62572  43.0012  82.4527 0001553 262.0153 278.6146 15.73827185  3504
STARLINK-32771          
1 62573U 25006V   25025.91668981 -.01461209  00000+0 -11355-1 0  9998
2 62573  43.0011  82.4477 0001018 282.7599 259.7968 15.73861652  3506
STARLINK-32766          
1 62574U 25006W   25025.91668981 -.01391543  00000+0 -10759-1 0  9999
2 62574  43.0011  82.4430 0001574 269.5062 274.9657 15.73824708  3551
